NORAD_CAT_ID,OBJECT_NAME,OBJECT_TYPE,EPOCH,MEAN_MOTION,ECCENTRICITY,INCLINATION,RA_OF_ASC_NODE,ARG_OF_PERICENTER,MEAN_ANOMALY,BSTAR,MEAN_MOTION_DOT,MEAN_MOTION_DDOT,TLE_LINE0,TLE_LINE1,TLE_LINE2,SEMIMAJOR_AXIS,PERIOD,APOGEE,PERIGEE,DECAYED
55407.0,STARLINK-5019,PAYLOAD,2023-12-20 21:27:28,14.98325278,0.0002677,70.0004,306.3311,257.5881,102.4978,0.00026316,3.048e-05,0.0,0 STARLINK-5019,1 55407U 23014S   23354.89408298  .00003048  00000-0  26316-3 0  9992,2 55407  70.0004 306.3311 0002677 257.5881 102.4978 14.98325278 50756,6950.207,96.107,573.933,570.212,0.0
55407.0,STARLINK-5019,PAYLOAD,2023-12-21 03:52:01,14.98325192,0.0002682,70.0,305.6571,253.738,106.3484,0.00027295,3.165e-05,0.0,0 STARLINK-5019,1 55407U 23014S   23355.16112326  .00003165  00000-0  27295-3 0  9994,2 55407  70.0000 305.6571 0002682 253.7380 106.3484 14.98325192 49859,6950.208,96.107,573.937,570.209,0.0
55407.0,STARLINK-5019,PAYLOAD,2023-12-21 07:04:16,14.98328521,0.0002881,70.0001,305.3217,258.7354,101.3481,0.00028628,3.324e-05,0.0,0 STARLINK-5019,1 55407U 23014S   23355.29464094  .00003324  00000-0  28628-3 0  9998,2 55407  70.0001 305.3217 0002881 258.7354 101.3481 14.98328521 50810,6950.197,96.107,574.065,570.06,0.0
55407.0,STARLINK-5019,PAYLOAD,2023-12-21 21:29:30,14.98330077,0.0002422,70.0018,303.8076,228.9409,131.1541,3.0572e-06,-5.6e-07,0.0,0 STARLINK-5019,1 55407U 23014S   23355.89548690 -.00000056  00000-0  30572-5 0  9992,2 55407  70.0018 303.8076 0002422 228.9409 131.1541 14.98330077 50902,6950.193,96.107,573.741,570.374,0.0
55407.0,STARLINK-5019,PAYLOAD,2023-12-22 03:54:02,14.98339233,0.0002489,70.0011,303.135,229.7901,130.304,-0.00020031,-2.483e-05,0.0,0 STARLINK-5019,1 55407U 23014S   23356.16252644 -.00002483  00000-0 -20031-3 0  9998,2 55407  70.0011 303.1350 0002489 229.7901 130.3040 14.98339233 50001,6950.164,96.106,573.759,570.299,0.0
55407.0,STARLINK-5019,PAYLOAD,2023-12-22 05:30:10,14.98328466,0.0002525,70.0013,302.9666,233.0772,127.0156,-3.4973e-05,-5.1e-06,0.0,0 STARLINK-5019,1 55407U 23014S   23356.22928885 -.00000510  00000-0 -34973-4 0  9992,2 55407  70.0013 302.9666 0002525 233.0772 127.0156 14.98328466 50956,6950.198,96.107,573.818,570.308,0.0
55407.0,STARLINK-5019,PAYLOAD,2023-12-22 21:31:31,14.98329799,0.0002483,70.0003,301.2816,243.0466,117.044,-8.3213e-05,-1.086e-05,0.0,0 STARLINK-5019,1 55407U 23014S   23356.89688919 -.00001086  00000-0 -83213-4 0  9996,2 55407  70.0003 301.2816 0002483 243.0466 117.0440 14.98329799 51055,6950.194,96.107,573.784,570.333,0.0
55407.0,STARLINK-5019,PAYLOAD,2023-12-23 07:08:19,14.9833174,0.0002437,70.0004,300.271,241.0224,119.0691,-4.5279e-05,-6.33e-06,0.0,0 STARLINK-5019,1 55407U 23014S   23357.29744676 -.00000633  00000-0 -45279-4 0  9991,2 55407  70.0004 300.2710 0002437 241.0224 119.0691 14.98331740 50178,6950.188,96.107,573.746,570.359,0.0
55407.0,STARLINK-5019,PAYLOAD,2023-12-23 21:33:31,14.98330094,0.0002367,70.0003,298.7561,247.2426,112.8484,5.6717e-05,5.84e-06,0.0,0 STARLINK-5019,1 55407U 23014S   23357.89828480  .00000584  00000-0  56717-4 0  9995,2 55407  70.0003 298.7561 0002367 247.2426 112.8484 14.98330094 51203,6950.193,96.107,573.703,570.412,0.0
55407.0,STARLINK-5019,PAYLOAD,2023-12-24 05:34:12,14.98321469,0.0002654,69.9996,297.9117,267.8105,92.275,0.00029318,3.406e-05,0.0,0 STARLINK-5019,1 55407U 23014S   23358.23208460  .00003406  00000-0  29318-3 0  9996,2 55407  69.9996 297.9117 0002654 267.8105  92.2750 14.98321469 51258,6950.219,96.108,573.929,570.24,0.0
55407.0,STARLINK-5019,PAYLOAD,2023-12-24 21:35:33,14.98325166,0.0002553,70.0003,296.2312,258.5478,101.5394,-1.3564e-05,-2.55e-06,0.0,0 STARLINK-5019,1 55407U 23014S   23358.89969015 -.00000255  00000-0 -13564-4 0  9996,2 55407  70.0003 296.2312 0002553 258.5478 101.5394 14.98325166 51354,6950.208,96.107,573.847,570.298,0.0
55407.0,STARLINK-5019,PAYLOAD,2023-12-25 04:00:05,14.98328432,0.0002587,69.9996,295.5563,260.1014,99.9853,1.4281e-05,7.7e-07,0.0,0 STARLINK-5019,1 55407U 23014S   23359.16672785  .00000077  00000-0  14281-4 0  9999,2 55407  69.9996 295.5563 0002587 260.1014  99.9853 14.98328432 50453,6950.198,96.107,573.861,570.265,0.0
55407.0,STARLINK-5019,PAYLOAD,2023-12-25 05:36:13,14.98328299,0.0002575,70.0,295.3892,263.7129,96.3737,3.7123e-05,3.5e-06,0.0,0 STARLINK-5019,1 55407U 23014S   23359.23348779  .00000350  00000-0  37123-4 0  9994,2 55407  70.0000 295.3892 0002575 263.7129  96.3737 14.98328299 51407,6950.198,96.107,573.853,570.273,0.0
55407.0,STARLINK-5019,PAYLOAD,2023-12-25 21:37:34,14.98329155,0.0002618,69.9996,293.7054,262.8773,97.2088,-3.5659e-05,-5.18e-06,0.0,0 STARLINK-5019,1 55407U 23014S   23359.90108905 -.00000518  00000-0 -35659-4 0  9993,2 55407  69.9996 293.7054 0002618 262.8773  97.2088 14.98329155 51505,6950.196,96.107,573.88,570.241,0.0
55407.0,STARLINK-5019,PAYLOAD,2023-12-26 04:02:06,14.98332635,0.0002534,69.9998,293.033,257.2653,102.8223,-1.838e-05,-3.12e-06,0.0,0 STARLINK-5019,1 55407U 23014S   23360.16812615 -.00000312  00000-0 -18380-4 0  9997,2 55407  69.9998 293.0330 0002534 257.2653 102.8223 14.98332635 50600,6950.185,96.107,573.811,570.289,0.0
55407.0,STARLINK-5019,PAYLOAD,2023-12-26 05:38:14,14.98333,0.0002478,69.9998,292.8632,267.469,92.6185,4.6499e-07,-8.7e-07,0.0,0 STARLINK-5019,1 55407U 23014S   23360.23488508 -.00000087  00000-0  46499-6 0  9997,2 55407  69.9998 292.8632 0002478 267.4690  92.6185 14.98333000 51558,6950.184,96.107,573.771,570.326,0.0
55407.0,STARLINK-5019,PAYLOAD,2023-12-26 20:03:26,14.98306503,0.0002512,70.0,291.3476,273.8106,86.2766,0.00041716,4.885e-05,0.0,0 STARLINK-5019,1 55407U 23014S   23360.83572745  .00004885  00000-0  41716-3 0  9993,2 55407  70.0000 291.3476 0002512 273.8106  86.2766 14.98306503 50705,6950.266,96.109,573.876,570.385,0.0
55407.0,STARLINK-5019,PAYLOAD,2023-12-26 21:39:34,14.9831953,0.0002506,69.9999,291.1792,270.9617,89.1255,0.00020356,2.336e-05,0.0,0 STARLINK-5019,1 55407U 23014S   23360.90248734  .00002336  00000-0  20356-3 0  9995,2 55407  69.9999 291.1792 0002506 270.9617  89.1255 14.98319530 51650,6950.225,96.108,573.832,570.349,0.0
55407.0,STARLINK-5019,PAYLOAD,2023-12-27 04:04:07,14.98331131,0.0002513,69.9998,290.5062,268.6204,91.4667,5.6808e-05,5.85e-06,0.0,0 STARLINK-5019,1 55407U 23014S   23361.16952562  .00000585  00000-0  56808-4 0  9991,2 55407  69.9998 290.5062 0002513 268.6204  91.4667 14.98331131 50750,6950.189,96.107,573.801,570.308,0.0
55407.0,STARLINK-5019,PAYLOAD,2023-12-27 05:40:14,14.98330953,0.0002568,69.9997,290.3383,269.8062,90.2802,0.00010891,1.207e-05,0.0,0 STARLINK-5019,1 55407U 23014S   23361.23628431  .00001207  00000-0  10891-3 0  9997,2 55407  69.9997 290.3383 0002568 269.8062  90.2802 14.98330953 51703,6950.19,96.107,573.84,570.27,0.0
55407.0,STARLINK-5019,PAYLOAD,2023-12-27 21:41:35,14.98372689,0.000187,70.0002,288.6539,263.1804,96.9142,-0.0007716,-9.297e-05,0.0,0 STARLINK-5019,1 55407U 23014S   23361.90388571 -.00009297  00000-0 -77160-3 0  9990,2 55407  70.0002 288.6539 0001870 263.1804  96.9142 14.98372689 51805,6950.061,96.104,573.226,570.626,0.0
55407.0,STARLINK-5019,PAYLOAD,2023-12-28 04:06:07,14.98364217,0.0001956,70.0,287.9812,267.1651,92.9284,-0.00074274,-8.951e-05,0.0,0 STARLINK-5019,1 55407U 23014S   23362.17092517 -.00008951  00000-0 -74274-3 0  9991,2 55407  70.0000 287.9812 0001956 267.1651  92.9284 14.98364217 50909,6950.087,96.105,573.312,570.593,0.0
55407.0,STARLINK-5019,PAYLOAD,2023-12-28 05:42:15,14.98367301,0.0002003,70.0001,287.8127,269.2311,90.8619,-0.00075263,-9.07e-05,0.0,0 STARLINK-5019,1 55407U 23014S   23362.23768217 -.00009070  00000-0 -75263-3 0  9997,2 55407  70.0001 287.8127 0002003 269.2311  90.8619 14.98367301 51859,6950.078,96.105,573.335,570.55,0.0
55407.0,STARLINK-5019,PAYLOAD,2023-12-28 20:07:28,14.98330752,0.0002748,69.999,286.297,268.5971,91.4873,4.3048e-05,4.21e-06,0.0,0 STARLINK-5019,1 55407U 23014S   23362.83852523  .00000421  00000-0  43048-4 0  9993,2 55407  69.9990 286.2970 0002748 268.5971  91.4873 14.98330752 51008,6950.191,96.107,573.965,570.146,0.0
55407.0,STARLINK-5019,PAYLOAD,2023-12-28 21:43:36,14.9833203,0.0002874,69.9991,286.1287,273.8531,86.23,3.6162e-05,3.39e-06,0.0,0 STARLINK-5019,1 55407U 23014S   23362.90528475  .00000339  00000-0  36162-4 0  9994,2 55407  69.9991 286.1287 0002874 273.8531  86.2300 14.98332030 51952,6950.187,96.107,574.049,570.054,0.0
55407.0,STARLINK-5019,PAYLOAD,2023-12-29 04:08:08,14.98336828,0.0002835,69.9993,285.4556,274.2526,85.8309,9.821e-05,1.079e-05,0.0,0 STARLINK-5019,1 55407U 23014S   23363.17231924  .00001079  00000-0  98210-4 0  9998,2 55407  69.9993 285.4556 0002835 274.2526  85.8309 14.98336828 51055,6950.172,96.107,574.007,570.066,0.0
55407.0,STARLINK-5019,PAYLOAD,2023-12-29 20:09:29,14.98325794,0.0002596,69.9997,283.7727,270.2054,89.8808,4.4195e-05,4.34e-06,0.0,0 STARLINK-5019,1 55407U 23014S   23363.83992629  .00000434  00000-0  44195-4 0  9994,2 55407  69.9997 283.7727 0002596 270.2054  89.8808 14.98325794 51155,6950.206,96.107,573.875,570.267,0.0
55407.0,STARLINK-5019,PAYLOAD,2023-12-29 21:45:37,14.98325009,0.0002611,69.9997,283.6044,269.2608,90.8252,3.3477e-05,3.06e-06,0.0,0 STARLINK-5019,1 55407U 23014S   23363.90668709  .00000306  00000-0  33477-4 0  9990,2 55407  69.9997 283.6044 0002611 269.2608  90.8252 14.98325009 52107,6950.208,96.107,573.888,570.259,0.0
55407.0,STARLINK-5019,PAYLOAD,2023-12-30 04:10:09,14.98330025,0.0002875,69.999,282.9304,273.5231,86.5599,5.3127e-05,5.41e-06,0.0,0 STARLINK-5019,1 55407U 23014S   23364.17372366  .00000541  00000-0  53127-4 0  9996,2 55407  69.9990 282.9304 0002875 273.5231  86.5599 14.98330025 52147,6950.193,96.107,574.056,570.06,0.0
55407.0,STARLINK-5019,PAYLOAD,2023-12-30 20:11:30,14.98323248,0.0002895,69.9989,281.2475,274.067,86.0158,3.1243e-05,2.8e-06,0.0,0 STARLINK-5019,1 55407U 23014S   23364.84132798  .00000280  00000-0  31243-4 0  9998,2 55407  69.9989 281.2475 0002895 274.0670  86.0158 14.98323248 51303,6950.214,96.107,574.091,570.067,0.0
